{"type":"FeatureCollection","features":[{"type":"Feature","geometry":{"type":"LineString","coordinates":[[111.7284894,-2.7396795],[111.7278671,-2.7446673],[111.7155075,-2.7650775],[111.7009163,-2.7878817],[111.7031479,-2.8017697],[111.7160225,-2.8180579],[111.7237473,-2.8283451],[111.7266655,-2.8371646],[111.722374,-2.8604062],[111.699543,-2.9651558],[111.6526794,-3.0860084],[111.603241,-3.2776298],[111.5977478,-3.3598891],[111.647033,-3.624858],[111.7680359,-4.0437275],[111.944363,-4.675455],[112.25382,-5.770248],[112.28458,-5.879003],[112.54877,-6.32755],[112.747098,-6.65944],[112.7452,-6.85978],[112.7029037,-6.913646],[112.6601601,-7.0632449],[112.6593018,-7.0835172],[112.6593018,-7.103533],[112.6773262,-7.1665559],[112.6806736,-7.1707287],[112.7327299,-7.1962545],[112.6806736,-7.1706435],[112.6773262,-7.1665559],[112.6593018,-7.103533],[112.6591301,-7.0840282],[112.6601601,-7.0634153],[112.66325,-7.0535344],[112.7108002,-6.9172247],[112.7423859,-6.8792213],[113.005808,-6.792532],[113.544882,-6.791938],[114.138213,-6.791847],[114.2866516,-6.8759832],[114.3522263,-6.9598257],[114.4662094,-7.1945727],[114.4835472,-7.2099855],[114.870507,-7.522275],[115.27394,-7.847073],[115.682265,-8.175532],[115.7677889,-8.2454692],[115.7731962,-8.2536236],[115.776329,-8.3748167],[115.7715225,-8.4098003],[115.7201099,-8.4517425],[115.6774521,-8.4849364],[115.3075218,-8.7148479],[115.2483845,-8.7502562],[115.2300167,-8.7553037],[115.2157474,-8.7483475],[115.2126575,-8.7419638],[115.2157474,-8.7483899],[115.2300167,-8.7553249],[115.2484703,-8.7502138],[115.3075433,-8.7152509],[115.3651142,-8.6825544],[115.6868076,-8.4972454],[115.8261967,-8.4171872],[116.183858,-8.210132],[116.2783527,-8.1602617],[116.318855,-8.156145],[116.929232,-8.115875],[117.49786,-8.078272],[117.849673,-8.053605],[118.1262016,-8.0903322],[118.340778,-8.134742],[118.6589527,-8.2814835],[118.6962891,-8.3507849],[118.6997223,-8.3966394],[118.6952591,-8.410055],[118.712653,-8.447567],[118.6952591,-8.4102249],[118.6997223,-8.396432],[118.700688,-8.380825],[118.7230682,-8.3393205],[118.794136,-8.2627972],[118.826063,-8.260125],[118.9436531,-8.2712911],[119.04895,-8.309578],[119.0729141,-8.3419531],[119.336532,-8.74705],[119.42405,-8.851135],[119.851778,-9.14796],[120.1344681,-9.3691277],[120.233345,-9.4443205],[120.2584076,-9.5059528],[120.2511764,-9.63314],[120.2504683,-9.6378575],[120.2565193,-9.6257144],[120.2621841,-9.6200553],[120.764812,-9.365872],[121.307858,-9.097443],[121.640913,-8.933798],[121.6648293,-8.90392],[121.6704941,-8.8735386],[121.6632521,-8.8566093],[122.0981026,-9.1526041],[122.1720886,-9.204121],[122.657163,-9.533502],[123.08556,-9.82563],[123.493395,-10.103427],[123.5210466,-10.186708],[123.5268217,-10.1937417],[123.5217333,-10.1863701],[123.5201454,-10.0859947],[123.519755,-9.969797],[123.687545,-9.45491],[123.7184143,-9.3672647],[124.007557,-8.870512],[124.2400932,-8.4679578],[124.3741608,-8.3298939],[124.4083214,-8.2864098],[124.5070267,-8.2315382],[124.5163929,-8.2197729],[124.5070267,-8.2315382],[124.4083214,-8.2864098],[124.3739891,-8.3300637],[124.240178,-8.468095],[123.98071,-8.915112],[123.718283,-9.36742],[123.6878586,-9.4544804],[123.555175,-9.861143],[123.529122,-9.940493],[123.5198021,-9.9702032],[123.5201454,-10.0862002],[123.5217333,-10.1863912],[123.5268188,-10.1937226],[123.5210037,-10.186708],[123.4933662,-10.1034021],[123.036257,-9.791973],[122.580785,-9.481723],[122.1720886,-9.204121],[122.098177,-9.152632],[121.6632628,-8.8565987],[121.6704941,-8.873581],[121.6648293,-8.9039393],[121.6409683,-8.9335745],[121.172518,-9.164785],[120.7644653,-9.3657403],[120.2621841,-9.6200447],[120.2565193,-9.6257144],[120.2504683,-9.6378575],[120.2511764,-9.63314],[120.2584076,-9.5060374],[120.233345,-9.4443205],[120.134215,-9.36865],[119.8519135,-9.1481977],[119.4241333,-8.8508106],[119.3369293,-8.7473295],[119.072898,-8.341842],[119.0488815,-8.3095113],[118.943677,-8.27131],[118.8260651,-8.2600792],[118.793992,-8.262883],[118.7230682,-8.3394054],[118.7006664,-8.3808032],[118.6997652,-8.396512],[118.6952162,-8.4100975],[118.7126398,-8.4476249],[118.6952591,-8.410055],[118.6997223,-8.3966394],[118.6962891,-8.3509548],[118.6588669,-8.2814835],[118.3406067,-8.1346875],[118.186012,-8.102797],[118.1263733,-8.0905022],[117.8496552,-8.0537907],[117.4980927,-8.0775855],[116.9302368,-8.1156544],[116.3186073,-8.1560986],[116.278422,-8.160203],[116.1838531,-8.2101311],[115.826253,-8.417092],[115.6867218,-8.4971605],[115.365133,-8.682567],[115.3075433,-8.7152615],[115.2483845,-8.7503835],[115.2300167,-8.7553249],[115.2157688,-8.7483899],[115.2126575,-8.7419426],[115.2157903,-8.7484111],[115.2299309,-8.7553037],[115.2483845,-8.7502987],[115.3075218,-8.7148373],[115.6774092,-8.4849788],[115.72005,-8.45179],[115.7715225,-8.4098003],[115.7762861,-8.3748167],[115.7732391,-8.2536236],[115.767753,-8.245458],[115.2737045,-7.8467168],[114.82213,-7.482448],[114.483515,-7.209893],[114.4662094,-7.1945727],[114.3525696,-6.9601665],[114.286855,-6.87603],[114.1379929,-6.791785],[113.176651,-6.791095],[113.0058002,-6.792552],[112.742386,-6.879302],[112.7108002,-6.9172247],[112.663216,-7.053652],[112.6603317,-7.0632449],[112.6593018,-7.0835172],[112.6593876,-7.1035756],[112.6772404,-7.1665133],[112.68068,-7.17073],[112.7327299,-7.1962545],[112.6806736,-7.1706435],[112.6773262,-7.1664707],[112.6593876,-7.103533],[112.659386,-7.083092],[112.6601601,-7.0634153],[112.7029037,-6.913646],[112.7451324,-6.859622],[112.746147,-6.659111],[112.382152,-6.047717],[112.288704,-5.890772],[112.146545,-5.393897],[111.986504,-4.82768],[111.7680359,-4.0437275],[111.6471863,-3.6244419],[111.5977478,-3.3598891],[111.603241,-3.2775441],[111.6526794,-3.0859655],[111.699543,-2.9650701],[111.722374,-2.8604062],[111.7266655,-2.8371963],[111.7237687,-2.8283665],[111.716001,-2.8180579],[111.7031479,-2.8017804],[111.7009056,-2.7878817],[111.7155075,-2.7650882],[111.7278671,-2.744668],[111.728484,-2.7396848]]},"properties":{"name":"AWU","date":2026,"description":"Kumai ➜ Surabaya ➜ Benoa ➜ Bima ➜ Waingapu ➜ Ende ➜ Kupang ➜ Kalabahi ➜ Kupang ➜ Ende ➜ Waingapu ➜ Bima ➜ Benoa ➜ Surabaya ➜ Kumai","ship":"KM Awu","mmsi":"525005014","ticket":"online (Pelni app) or in Pelni office only","website":["https://pelni.co.id/","https://terupdate.net/jadwal-kapal/pelni/awu-terbaru.html","https://kataomed.com/jadwal-kapal/jadwal-kapal-pelni-km-awu-juli-2019-dari-ende-dari-kupang-dari-kalabahi-alor-dan-dari-waingapu-sumba"],"image":"https://terupdate.net/wp-content/uploads/2025/11/jadwal-kapal-awu-678x381.jpg","color":"#FFA500","remarks":"Roughly two trips per month. Often a return trip to Semarang is added from/to Kumai."},"id":"1"},{"type":"Feature","properties":{"description":"Pelabuhan Kumai"},"geometry":{"coordinates":[111.72849817080049,-2.739643409109064],"type":"Point"},"id":448},{"type":"Feature","geometry":{"type":"LineString","coordinates":[[115.2125931,-8.7419002],[115.2158117,-8.7484323],[115.2299309,-8.7553037],[115.248642,-8.7508925],[115.4444647,-8.6365645],[115.46085,-8.63733],[115.4951477,-8.6383889],[115.987108,-8.68023],[116.0112476,-8.682512],[116.016667,-8.685],[116.0487986,-8.7225789],[116.0537338,-8.7411579],[116.0612011,-8.7415185],[116.0537285,-8.7411579],[115.994339,-8.3583428],[115.99979,-8.333383],[116.2973213,-8.1581377],[116.4015198,-8.1501512],[116.653862,-8.1326483],[116.9700623,-8.1149746],[117.486763,-8.0850636],[117.855,-8.061667],[118.0079269,-8.0514111],[118.0491257,-8.0534507],[118.1692886,-8.0928815],[118.540612,-8.223177],[118.6616135,-8.263137],[118.663415,-8.266268],[118.696332,-8.3509972],[118.6996794,-8.3961724],[118.6952591,-8.4102249],[118.7125969,-8.4474551],[118.6951303,-8.4102673],[118.6997223,-8.3962997],[118.7005806,-8.3808457],[118.7232399,-8.3392355],[118.7849522,-8.2632219],[118.9,-8.26],[118.9283752,-8.2616505],[119.2499828,-8.3233546],[119.43,-8.358333],[119.638333,-8.401667],[119.7616196,-8.4296258],[119.8324299,-8.4938499],[119.8679638,-8.4990281],[119.8756027,-8.4939348],[119.8679638,-8.4990917],[119.8326766,-8.493436],[119.7699451,-8.3614848],[119.688333,-7.83],[119.608333,-7.305],[119.5271301,-6.7730344],[119.4474792,-6.2593323],[119.3836212,-5.8469116],[119.3664551,-5.7341932],[119.347229,-5.4950205],[119.3069959,-5.3341225],[119.336667,-5.118333],[119.38,-5.1133333],[119.4074392,-5.1220198],[119.380188,-5.1133],[119.3366289,-5.1183011],[119.3070602,-5.3342079],[119.3474007,-5.4946787],[119.345,-5.573333],[119.748333,-5.795],[119.9168015,-5.7768922],[120.2947998,-5.7347056],[120.4245758,-5.7217245],[120.811667,-5.681667],[120.9436798,-5.6680889],[121.363333,-5.625],[121.4899063,-5.6132524],[121.88,-5.575],[122.0047188,-5.562853],[122.0993042,-5.5442297],[122.577148,-5.450457],[122.6007271,-5.4466616],[122.6107693,-5.4536252],[122.6111984,-5.4259334],[122.6118851,-5.3980425],[122.6416683,-5.3587342],[122.6496506,-5.3186542],[122.7181435,-5.0384499],[122.7725601,-4.9767167],[122.7991676,-4.9038606],[122.7341723,-4.8393567],[122.7690411,-4.8265492],[122.7882457,-4.8083105],[122.7889538,-4.8053277],[122.8067207,-4.593365],[122.929092,-4.385742],[122.9311752,-4.2293236],[122.9253387,-4.1618702],[122.813759,-3.966278],[122.6122928,-3.9725552],[122.6110482,-3.9740322],[122.6122874,-3.9725659],[122.729561,-3.96143],[122.754364,-3.7681661],[122.793335,-3.446667],[122.8133297,-3.2499515],[122.7983093,-3.1214901],[122.7471542,-2.7391865],[122.7282715,-2.5946328],[122.6602936,-2.0821374],[122.6106834,-1.7110379],[122.5932598,-1.5600375],[122.6015854,-1.5413332],[122.741669,-1.225],[122.8116989,-1.0601202],[122.8195953,-0.9592419],[122.8005409,-0.9481927],[122.7964425,-0.9497321],[122.7956271,-0.9529127],[122.7964371,-0.9497482],[122.8006053,-0.9473989],[122.8316545,-0.9516469],[123.306427,-1.0680152],[123.3350086,-1.0683585],[123.418335,-0.996667],[123.480003,-0.823333],[123.4816074,-0.8049795],[123.463333,-0.656667],[123.3998108,-0.4772131],[123.285004,-0.163333],[123.2219696,0.0075531],[123.088333,0.388333],[123.058334,0.501667],[123.0604362,0.5053216],[123.0626678,0.5065661],[123.0604148,0.5053002],[123.1306458,0.3962771],[123.26667,0.256667],[123.693336,0.256667],[123.9968491,0.3100189],[124.220001,0.35],[124.518333,0.403333],[124.6429825,0.5530844],[124.855003,0.803333],[124.986641,0.962028],[125.1358223,1.3216754],[125.1328182,1.3792518],[125.1715708,1.4298767],[125.1915479,1.4385214],[125.1716137,1.4298767],[125.132919,1.379125],[125.135994,1.3216754],[124.9869919,0.9622884],[124.8554993,0.8040355],[124.643333,0.553333],[124.518013,0.4034009],[124.2203522,0.3498437],[123.996666,0.31],[123.6933517,0.2568046],[123.2666016,0.2568046],[123.1306458,0.396363],[123.0604792,0.5053002],[123.0626678,0.5065661],[123.0603933,0.5053645],[123.0583441,0.5016632],[123.0884171,0.3886384],[123.221664,0.008333],[123.285141,-0.1637647],[123.400002,-0.478333],[123.4632826,-0.6566762],[123.481667,-0.805],[123.4800196,-0.8233025],[123.4183288,-0.9966371],[123.334999,-1.068333],[123.306427,-1.0680152],[122.831665,-0.951667],[122.8006053,-0.9473989],[122.7964371,-0.9497428],[122.7956271,-0.9529342],[122.7964371,-0.9497374],[122.8005409,-0.9481927],[122.8195953,-0.959199],[122.811668,-1.06],[122.7416611,-1.2248823],[122.6015854,-1.541419],[122.59333,-1.56],[122.6108551,-1.7108663],[122.660004,-2.081667],[122.728317,-2.594547],[122.7471542,-2.739358],[122.798332,-3.121667],[122.813332,-3.25],[122.7933311,-3.4466822],[122.754402,-3.767995],[122.7295804,-3.9614239],[122.6123035,-3.9725552],[122.6110482,-3.9740269],[122.6122928,-3.9725552],[122.8137589,-3.9662404],[122.9253387,-4.1618702],[122.93116,-4.22932],[122.9291153,-4.3857788],[122.806664,-4.593333],[122.7889538,-4.8053384],[122.788254,-4.808313],[122.7690411,-4.8265492],[122.7341723,-4.8393567],[122.799156,-4.903863],[122.7725601,-4.9768877],[122.71833,-5.038333],[122.6496506,-5.3187397],[122.6416683,-5.3588196],[122.6118851,-5.3980425],[122.6111984,-5.4258985],[122.6107693,-5.4536679],[122.60077,-5.4466189],[122.5771236,-5.4504211],[122.09977,-5.544202],[122.0047188,-5.562853],[121.8800926,-5.5749834],[121.489998,-5.613333],[121.3632202,-5.6250401],[120.9435081,-5.6679181],[120.8115005,-5.6817545],[120.425003,-5.721667],[120.2946281,-5.7348765],[119.916544,-5.7766361],[119.7483158,-5.7949103],[119.3451691,-5.5732749],[119.347229,-5.4948496],[119.3070602,-5.3341225],[119.336586,-5.1180446],[119.3801022,-5.1132572],[119.4074392,-5.1220732],[119.380188,-5.1133855],[119.3366718,-5.1183011],[119.3070173,-5.3341225],[119.347237,-5.494457],[119.300003,-6.035],[119.251663,-6.566667],[119.228333,-6.818333],[119.061668,-7.311666],[118.893333,-7.808333],[118.726669,-8.303333],[118.7005806,-8.3811004],[118.699894,-8.3963847],[118.6952591,-8.4103947],[118.7126076,-8.4474551],[118.6952591,-8.4103947],[118.6996365,-8.3962997],[118.7006664,-8.3809306],[118.7232399,-8.3392355],[118.7846947,-8.2633069],[118.8999653,-8.2599093],[118.9283752,-8.2616081],[119.2499828,-8.3233971],[119.4299698,-8.358088],[119.638195,-8.401734],[119.7616196,-8.4295833],[119.8326015,-8.4938923],[119.8679638,-8.499113],[119.8756135,-8.4939454],[119.8679638,-8.499113],[119.8326874,-8.4934254],[119.770031,-8.3613149],[119.6891785,-7.8307314],[119.6081543,-7.3059416],[119.526665,-6.773334],[119.448334,-6.258333],[119.3836212,-5.8455455],[119.366669,-5.735],[119.347229,-5.4946787],[119.3069744,-5.3341225],[119.3365002,-5.1179591],[119.380188,-5.1133427],[119.40745,-5.1220732],[119.380188,-5.1131717],[119.336586,-5.1179591],[119.3069744,-5.3341011],[119.3473148,-5.4947641],[119.3664551,-5.7355597],[119.385002,-5.846667],[119.4474792,-6.2593323],[119.5264435,-6.7737162],[119.6074677,-7.3059416],[119.6884918,-7.8300512],[119.770031,-8.3614848],[119.8326766,-8.4934148],[119.8679745,-8.4991024],[119.8756135,-8.4939348],[119.867878,-8.4991979],[119.8325157,-8.4939348],[119.7616196,-8.4295833],[119.6383667,-8.401734],[119.4297981,-8.3582579],[119.25,-8.323334],[118.928337,-8.261666],[118.9000082,-8.2599942],[118.7847805,-8.2633069],[118.7232399,-8.3392069],[118.7005806,-8.3811004],[118.6997223,-8.3963847],[118.6951733,-8.4103098],[118.7126023,-8.4474604],[118.6951733,-8.4102249],[118.6996794,-8.3961724],[118.6962891,-8.3509548],[118.6634159,-8.2662797],[118.6616135,-8.263137],[118.5407639,-8.2230435],[118.1692886,-8.0925416],[118.0491257,-8.0531108],[118.008331,-8.051666],[117.8551483,-8.0619491],[117.486664,-8.085],[116.970001,-8.115],[116.653862,-8.1323084],[116.401665,-8.15],[116.2971497,-8.1581377],[115.9998322,-8.3333758],[115.994339,-8.3582579],[116.0537231,-8.7411632],[116.0612011,-8.7414973],[116.0537285,-8.7411579],[116.0487986,-8.7225577],[116.0166764,-8.6849725],[116.0112476,-8.682512],[115.9871292,-8.6802211],[115.4951477,-8.6382192],[115.444504,-8.636623],[115.248642,-8.7508501],[115.2299738,-8.7553037],[115.2157688,-8.7484323],[115.2125931,-8.7419002]]},"properties":{"name":"TILONGKABILA","date":2026,"description":"Benoa ➜ Lembar ➜ Bima ➜ Bima ➜ Labuan Bajo ➜ Makassar ➜ Bau-Bau ➜ Raha ➜ Kendari ➜ Luwuk ➜ Gorontalo ➜ Bitung ➜ Gorontalo ➜ Luwuk ➜ Kendari ➜ Raha ➜ Bau-Bau ➜ Makassar ➜ Bima ➜ Labuan Bajo ➜ Makassar ➜ Labuan Bajo ➜ Bima ➜ Lembar ➜ Benoa","ship":"KM Tilongkabila","mmsi":"525005016","ticket":"online (Pelni app) or in Pelni office only","website":["https://pelni.co.id/","https://terupdate.net/jadwal-kapal/pelni/tilongkabila-terbaru.html","https://kataomed.com/jadwal-kapal/jadwal-kapal-pelni-tilongkabila-januari-2020"],"image":"https://terupdate.net/wp-content/uploads/2025/11/jadwal-kapal-tilongkabila-678x381.jpg","color":"#A87007","remarks":"Roughly two trips per month."},"id":"2"},{"type":"Feature","properties":{"description":"Pelabuhan Lembar (Gilimas)"},"geometry":{"coordinates":[116.06115376473429,-8.741425500581613],"type":"Point"},"id":449}]}