{
  "type": "FeatureCollection",
  "features": [
    {
      "type": "Feature",
      "geometry": {
        "type": "Point",
        "coordinates": [
          130.455806,
          -0.510778
        ]
      },
      "properties": {
        "name": "Citrus ridge",
        "description": "Opposite Avin sea homestay on the shore of Pulau Yanggelo. Swimmable from the beach on the northern side it seems.",
        "sources": "{{{https://www.youtube.com/watch?v=mwIv7LBhaGA}}},{{{https://www.youtube.com/watch?v=OWcVURvwfJY}}},{{{https://www.youtube.com/watch?v=wQRVPeVXJys}}},{{{https://www.youtube.com/watch?v=jYxAS83ijKU}}}",
        "titles": "01/12/2022, 17/08/2023, 01/12/2024, 03/06/2025"
      },
      "id": "Jsk1a"
    }
  ]
}