{"type":"FeatureCollection","features":[{"type":"Feature","properties":{"description":"Pelabuhan Sibolga"},"geometry":{"coordinates":[98.78637584249816,1.7276067230908012],"type":"Point"}},{"type":"Feature","properties":{"name":"R-2","date":2026,"description":"Calang ➜ Sinabang ➜ Tapak Tuan ➜ Sinabang ➜ Lahewa ➜ Sinabang ➜ Pulau Banyak ➜ Tapak Tuan ➜ Sinabang ➜ Calang","ticket":"online (https://calangr2.palambakgo.com/) or on ship","website":["https://calangr2.palambakgo.com/","https://www.instagram.com/djpl_uppcalang/"],"image":"https://assets.pikiran-rakyat.com/crop/0x0:0x0/720x0/webp/photo/2024/10/25/1025066083.jpg","color":"#3CB2E2"},"geometry":{"coordinates":[[95.5716133,4.6342592],[95.5654335,4.6364834],[95.5623436,4.6339169],[95.561657,4.627244],[95.5632877,4.6147107],[95.7321167,4.1793333],[95.9951019,3.588807],[96.3748169,2.7276983],[96.4058876,2.6548227],[96.4127541,2.6049218],[96.4074326,2.5610212],[96.3979053,2.5139463],[96.3982487,2.5040853],[96.3925838,2.4937096],[96.3850093,2.472658],[96.3943863,2.4946529],[96.3988495,2.5058002],[96.3998795,2.5155755],[96.4105225,2.5287807],[97.1328735,3.1953638],[97.1648026,3.228271],[97.1778488,3.2433531],[97.1799088,3.2470379],[97.18081,3.2496516],[97.1807671,3.2519224],[97.1808314,3.2493302],[97.1799302,3.2467594],[97.1777844,3.2430532],[97.1646738,3.2277568],[97.1325302,3.1938212],[96.4115524,2.5292094],[96.4007378,2.5160043],[96.3993645,2.5070007],[96.3937855,2.4942241],[96.385181,2.472808],[96.3954163,2.4964536],[96.3989353,2.5049427],[96.4015102,2.5163473],[96.4088058,2.5230356],[96.4222813,2.5294666],[96.4423656,2.5285234],[96.4609051,2.5231213],[96.5080261,2.4951674],[97.1776772,1.44678],[97.1795654,1.4344243],[97.1773338,1.4152041],[97.175746,1.4092407],[97.1746731,1.4038565],[97.1716261,1.3976785],[97.1748233,1.4040495],[97.1759391,1.4094767],[97.177484,1.4154401],[97.1796942,1.4345744],[97.1777201,1.4471232],[96.5092278,2.4942241],[96.4618492,2.5231213],[96.4435673,2.5286949],[96.4233112,2.5298954],[96.4095783,2.5236358],[96.4022827,2.516776],[96.399622,2.5074723],[96.3947725,2.4952531],[96.3854599,2.473001],[96.3943863,2.4950816],[96.3991928,2.5073866],[96.401124,2.5155755],[96.4113808,2.5257795],[96.4232254,2.5305814],[96.4426231,2.5303241],[96.4633083,2.5250935],[97.3409271,2.3257161],[97.3780918,2.3136238],[97.3972321,2.3043617],[97.4073386,2.2953353],[97.3980045,2.3050477],[97.3805809,2.3215138],[97.3715687,2.3394376],[97.3677921,2.3628496],[97.2042847,3.1761674],[97.1908951,3.2270713],[97.1843719,3.2447242],[97.18081,3.2522438],[97.1809816,3.2498229],[97.1801448,3.2469737],[97.1775913,3.2424533],[97.1708107,3.2346552],[97.1642876,3.2275426],[97.1325302,3.1943354],[96.4100933,2.5278374],[96.4003515,2.5156184],[96.3990641,2.5067006],[96.3940215,2.4945028],[96.385181,2.4725937],[96.3928628,2.4939454],[96.3980556,2.504171],[96.3980556,2.5141178],[96.4075613,2.5613642],[96.4129257,2.6059507],[96.4058876,2.656366],[96.3744736,2.72907],[95.993042,3.5997717],[95.7279968,4.1971384],[95.5633736,4.6155234],[95.5620003,4.6279284],[95.5629444,4.6346014],[95.5662918,4.6363979],[95.5720425,4.6336603]],"type":"LineString"}},{"type":"Feature","properties":{"description":"Pelabuhan Pulau Tello"},"geometry":{"coordinates":[98.28490309845984,-0.05054649498276831],"type":"Point"}},{"type":"Feature","properties":{"name":"R-4","date":2026,"description":"Teluk Bayur ➜ Labuhan Bajau ➜ Sikabaluan ➜ Muara Saibi ➜ Maileppet ➜ Tua Pejat ➜ Teluk Bayur ➜ Sioban ➜ Sikakap ➜ Teluk Bayur ➜ Sikakap ➜ Sioban ➜ Panasahan ➜ Tua Pejat ➜ Teluk Bayur ➜ Sikakap ➜ Teluk Bayur","ticket":"online (Pelni app) or on ship","website":["https://terupdate.net/jadwal-kapal/sanus/sabuk-nusantara-68.html","https://www.instagram.com/dishub_mentawai/"],"image":"https://terupdate.net/wp-content/uploads/2025/11/jadwal-kapal-sabuk-nusantara-68-678x381.jpg","color":"#277391"},"geometry":{"coordinates":[[100.374786,-0.996475,0],[100.3747787475586,-0.9964883327484131,0],[100.380524,-1.011753,0],[100.36348,-1.05398,0],[100.325882,-1.106077,0],[100.306732,-1.110667,0],[100.187454,-1.071455,0],[100.157242,-1.061458,0],[100.050003,-1.045,0],[99.916664,-1.031667,0],[99.011665,-0.926667,0],[98.919998,-0.92,0],[98.971664,-0.926667,0],[98.986664,-0.941667,0],[98.991669,-1.043333,0],[98.966667,-1.075,0],[98.953331,-1.075,0],[98.9566650390625,-1.0800000429153442,0],[99.041664,-1.131667,0],[99.103333,-1.246667,0],[99.128334,-1.293333,0],[99.126663,-1.311667,0],[99.099998,-1.33,0],[99.0999984741211,-1.3300000429153442,0],[99.143333,-1.343333,0],[99.201668,-1.455,0],[99.236664,-1.52,0],[99.239998,-1.54,0],[99.196663,-1.563333,0],[99.19666290283203,-1.5633333921432495,0],[99.271667,-1.573333,0],[99.35833,-1.673333,0],[99.443336,-1.771667,0],[99.53167,-1.871667,0],[99.536667,-1.876667,0],[99.618332,-1.976667,0],[99.59333,-2.03,0],[99.59333038330078,-2.0299999713897705,0],[99.673332,-1.928333,0],[99.75,-1.826667,0],[99.856667,-1.686667,0],[99.940002,-1.578333,0],[100.01667,-1.476667,0],[100.094276,-1.375525,0],[100.169884,-1.275172,0],[100.21833,-1.213333,0],[100.304283,-1.146023,0],[100.374413,-1.028077,0],[100.375,-0.996666669845581,0],[100.377075,-0.997847,0],[100.366028,-1.04996,0],[100.305473,-1.150428,0],[100.221352,-1.21326,0],[100.165428,-1.325522,0],[100.106667,-1.44,0],[100.041664,-1.565,0],[99.981667,-1.68,0],[99.923332,-1.801667,0],[99.864998,-1.915,0],[99.806664,-2.026667,0],[99.75,-2.138333,0],[99.730003,-2.181667,0],[99.7316665649414,-2.18666672706604,0],[99.791664,-2.203333,0],[99.879997,-2.298333,0],[99.971664,-2.398333,0],[100.095001,-2.528333,0],[100.18,-2.62,0],[100.243332,-2.686667,0],[100.254997,-2.726667,0],[100.21666717529297,-2.7783334255218506,0],[100.21994,-2.777505,0],[100.245865,-2.751247,0],[100.25119,-2.72238,0],[100.261665,-2.56,0],[100.269997,-2.431667,0],[100.279999,-2.285,0],[100.28833,-2.148333,0],[100.296669,-2.023333,0],[100.306664,-1.898333,0],[100.315002,-1.766667,0],[100.324997,-1.598333,0],[100.331665,-1.508333,0],[100.32518,-1.382852,0],[100.310585,-1.254945,0],[100.307175,-1.162245,0],[100.364883,-1.048978,0],[100.369545,-1.038795,0],[100.3743667602539,-0.9972833395004272,0],[100.377518,-0.998682,0],[100.36731,-1.045943,0],[100.306328,-1.154402,0],[100.313843,-1.279835,0],[100.326668,-1.41,0],[100.333336,-1.485,0],[100.323334,-1.626667,0],[100.315002,-1.758333,0],[100.306664,-1.883333,0],[100.298332,-2.008333,0],[100.290001,-2.136667,0],[100.279999,-2.265,0],[100.271667,-2.395,0],[100.264999,-2.521667,0],[100.256897,-2.647353,0],[100.25087,-2.734528,0],[100.21549987792969,-2.7775065898895264,0],[100.215439,-2.7775,0],[100.243553,-2.754733,0],[100.246437,-2.697123,0],[100.225754,-2.668595,0],[100.138336,-2.575,0],[100.051666,-2.483333,0],[99.966667,-2.391667,0],[99.881668,-2.3,0],[99.786667,-2.198333,0],[99.768333,-2.183333,0],[99.728333,-2.183333,0],[99.7316665649414,-2.18666672706604,0],[99.818336,-2.083333,0],[99.90667,-1.986667,0],[100,-1.883333,0],[100.105003,-1.766667,0],[100.190002,-1.673333,0],[100.278336,-1.576667,0],[100.364998,-1.481667,0],[100.453171,-1.385458,0],[100.462639,-1.375428,0],[100.485001,-1.361667,0],[100.5683364868164,-1.3650000095367432,0],[100.566666,-1.361667,0],[100.476669,-1.358333,0],[100.455002,-1.368333,0],[100.317398,-1.476222,0],[100.216995,-1.550695,0],[100.111664,-1.63,0],[100.004997,-1.706667,0],[99.889999,-1.793333,0],[99.785004,-1.87,0],[99.673332,-1.953333,0],[99.616669,-1.995,0],[99.59333,-2.03,0],[99.59333038330078,-2.0299999713897705,0],[99.68,-1.92,0],[99.756668,-1.818333,0],[99.845001,-1.701667,0],[99.933334,-1.588333,0],[100.009201,-1.48641,0],[100.086334,-1.38705,0],[100.161552,-1.286892,0],[100.218979,-1.21223,0],[100.309349,-1.1406,0],[100.375,-1.025943,0],[100.3795166015625,-1.004591703414917,0],[100.376221,-0.99761,0],[100.379425,-1.015375,0],[100.318283,-1.126928,0],[100.30761,-1.152907,0],[100.314407,-1.278852,0],[100.32679,-1.40454,0],[100.333336,-1.465,0],[100.328331,-1.595,0],[100.328331,-1.633333,0],[100.315002,-1.78,0],[100.305,-1.91,0],[100.296669,-2.041667,0],[100.28833,-2.175,0],[100.279999,-2.301667,0],[100.269997,-2.428333,0],[100.261665,-2.561667,0],[100.254997,-2.695,0],[100.245972,-2.74634,0],[100.21570587158203,-2.7777984142303467,0],[100.215393,-2.777532,0],[100.245171,-2.750907,0],[100.260002,-2.6,0],[100.268333,-2.475,0],[100.276665,-2.333333,0],[100.286667,-2.195,0],[100.294998,-2.058333,0],[100.303337,-1.926667,0],[100.311668,-1.788333,0],[100.32,-1.66,0],[100.330002,-1.508333,0],[100.333336,-1.48,0],[100.322014,-1.3548,0],[100.310204,-1.229703,0],[100.307877,-1.165302,0],[100.360039,-1.050168,0],[100.379997,-1.015,0],[100.37458801269531,-0.9968550205230713,0],[100.374792,-0.996487,0]],"type":"LineString"}},{"type":"Feature","properties":{"name":"R-5","date":2026,"description":"Bengkulu ➜ Enggano ➜ Bengkulu ➜ Enggano ➜ Linau ➜ Enggano ➜ Bengkulu ➜ Enggano ➜ Bengkulu","ticket":"on ship","website":["https://www.facebook.com/UptdPenyeberanganBengkulu","https://www.instagram.com/djpl_uppmalakoni/"],"image":"https://radarutara.disway.id/upload/7d6a57cc9cc14407ea60dccd43ba18f9.jpeg","color":"#3CB2E2"},"geometry":{"coordinates":[[102.303333,-3.906667,0],[102.260107,-3.896615,0],[102.266667,-4.721667,0],[102.27,-5.283333,0],[102.278333,-5.346667,0],[102.27833333333334,-5.346666666666667,0],[102.269763,-5.202197,0],[102.246667,-4.003333,0],[102.266497,-3.894455,0],[102.27226666666667,-3.8922700000000003,0],[102.30403833333334,-3.906711666666667,0],[102.30417,-3.906753,0],[102.25966,-3.897908,0],[102.263333,-4.156667,0],[102.271667,-4.855,0],[102.27833333333334,-5.345,0],[102.276667,-5.345,0],[102.543333,-5.221667,0],[102.793333,-5.113333,0],[103.055,-4.996667,0],[103.311667,-4.885,0],[103.37,-4.861667,0],[103.130425,-4.967723,0],[102.873333,-5.078333,0],[102.623333,-5.188333,0],[102.38,-5.291667,0],[102.27833333333334,-5.345,0],[102.278143,-5.34629,0],[102.276667,-5.048333,0],[102.263333,-4.766667,0],[102.258333,-4.355,0],[102.250908,-4.095322,0],[102.24585,-3.979747,0],[102.254035,-3.899817,0],[102.27117166666666,-3.891131666666667,0],[102.30408166666666,-3.90679,0],[102.304133,-3.906782,0],[102.25,-3.895,0],[102.243333,-3.993333,0],[102.251667,-4.273333,0],[102.261667,-4.586667,0],[102.273333,-4.863333,0],[102.283333,-5.123333,0],[102.27833333333334,-5.345,0],[102.290485,-5.335685,0],[102.281667,-5.076667,0],[102.273333,-4.801667,0],[102.258333,-4.338333,0],[102.249787,-4.079795,0],[102.246788,-3.90925,0],[102.27113833333334,-3.88998,0],[102.30406333333333,-3.9068616666666665,0],[102.304115,-3.906768,0],[102.263333,-3.891667,0],[102.245,-3.928333,0],[102.26,-4.226667,0],[102.263333,-4.47,0]],"type":"LineString"}},{"type":"Feature","properties":{"name":"R-6","date":2026,"description":"Gorontalo ➜ Banggai Laut ➜ Samoya ➜ Falabishaya ➜ Dofa ➜ Sanana ➜ Namlea ➜ Sanana ➜ Dofa ➜ Falabishaya ➜ Samoya ➜ Banggai Laut ➜ Goroontalo ","ticket":"on ship","website":["https://www.facebook.com/ekhi.bentor.banggai.laut","https://www.instagram.com/pelabuhan_banggai/"],"image":"https://terupdate.net/wp-content/uploads/2023/10/jadwal-kapal-sabuk-nusantara-83-678x381.jpg","color":"#3CB2E2"},"geometry":{"coordinates":[[123.061667,0.508333,0],[123.221667,0.016667,0],[123.393333,-0.503333,0],[123.506667,-0.831667,0],[123.588333,-1.305,0],[123.463333,-1.54,0],[123.48,-1.593333,0],[123.458333,-1.546667,0],[123.605,-1.408333,0],[124.138333,-1.503333,0],[124.675,-1.583333,0],[125.176667,-1.668333,0],[125.306667,-1.731667,0],[125.288333,-1.78,0],[125.491667,-1.775,0],[125.371667,-1.75,0],[125.323333,-1.831667,0],[125.43,-1.965,0],[125.956667,-1.955,0],[125.983333,-2.056667,0],[126.35401,-2.418362,0],[126.72,-2.793333,0],[127.085,-3.161667,0],[127.138333,-3.236667,0],[127.136667,-3.285,0],[127.085307,-3.283907,0],[127.08360166666667,-3.2694433333333333,0],[127.138333,-3.241667,0],[127.073333,-3.15,0],[126.708333,-2.778333,0],[126.346078,-2.409148,0],[125.981667,-2.056667,0],[126.006667,-2.018333,0],[125.953333,-1.96,0],[125.423333,-1.963333,0],[125.333333,-1.888333,0],[125.328333,-1.823333,0],[125.378333,-1.761667,0],[125.488333,-1.765,0],[125.288333,-1.781667,0],[125.375,-1.8033333333333332,0],[125.298333,-1.723333,0],[125.173333,-1.676667,0],[124.66,-1.581667,0],[124.331667,-1.528333,0],[123.803333,-1.455,0],[123.585,-1.438333,0],[123.478333,-1.505,0],[123.48,-1.591667,0],[123.466667,-1.531667,0],[123.591667,-1.31,0],[123.521667,-0.93,0]],"type":"LineString"}},{"type":"Feature","properties":{"description":"Pelabuhan Maileppet"},"geometry":{"coordinates":[99.19682129214425,-1.5637383584714115],"type":"Point"}},{"type":"Feature","properties":{"description":"Pelabuhan Sikabaluan"},"geometry":{"coordinates":[98.95708561324102,-1.0806969666289064],"type":"Point"}},{"type":"Feature","properties":{"description":"Pelabuhan Sigologolo"},"geometry":{"coordinates":[98.49724207560342,-0.5327088493930319],"type":"Point"}},{"type":"Feature","properties":{"description":"Pelabuhan Labuhan Bajau"},"geometry":{"coordinates":[98.91076579537142,-0.9310634480541051],"type":"Point"}},{"type":"Feature","properties":{"description":"Air Bangis"},"geometry":{"coordinates":[99.36085802042652,0.19151151455250215],"type":"Point"}},{"type":"Feature","properties":{"description":"Muara Saibi"},"geometry":{"coordinates":[99.09652108490388,-1.329922325249882],"type":"Point"}},{"type":"Feature","properties":{"description":"Pelabuhan Sikakap"},"geometry":{"coordinates":[100.21537009780849,-2.7774705877639434],"type":"Point"}},{"type":"Feature","properties":{"description":"Pelabuhan Panasahan"},"geometry":{"coordinates":[100.56740638873589,-1.36526592890705],"type":"Point"}},{"type":"Feature","properties":{"description":"Pelabuhan Calang"},"geometry":{"coordinates":[95.57113795314353,4.633882014108437],"type":"Point"}},{"type":"Feature","properties":{"description":"Pelabuhan Sinabang"},"geometry":{"coordinates":[96.38499051364101,2.472282689257682],"type":"Point"}},{"type":"Feature","properties":{"description":"Pelabuhan Tapak Tuan"},"geometry":{"coordinates":[97.1806660299485,3.2523991593188413],"type":"Point"}},{"type":"Feature","properties":{"description":"Pelabuhan Lahewa"},"geometry":{"coordinates":[97.1715542497218,1.397525975846463],"type":"Point"}},{"type":"Feature","properties":{"description":"Pelabuhan Pulau Banyak"},"geometry":{"coordinates":[97.40768110503296,2.295105115062526],"type":"Point"}},{"type":"Feature","properties":{"description":"Pelabuhan Linau"},"geometry":{"coordinates":[103.41243094596638,-4.842098390032845],"type":"Point"}},{"type":"Feature","properties":{"description":"Pelabuhan Malakoni"},"geometry":{"coordinates":[102.2781089812446,-5.3463497182493],"type":"Point"}},{"type":"Feature","properties":{"description":"Pelabuhan Pulau Baai"},"geometry":{"coordinates":[102.303551475794,-3.906752170043049],"type":"Point"}},{"type":"Feature","properties":{"description":"Pelabuhan Gorontalo"},"geometry":{"coordinates":[123.0629892696827,0.5087967186469342],"type":"Point"}},{"type":"Feature","properties":{"description":"Pelabuhan Banggai"},"geometry":{"coordinates":[123.49766463091436,-1.5905886941078364],"type":"Point"}},{"type":"Feature","properties":{"description":"Samoya"},"geometry":{"coordinates":[125.28839588302174,-1.7815042480681171],"type":"Point"}},{"type":"Feature","properties":{"description":"Pelabuhan Falabishaya"},"geometry":{"coordinates":[125.48394349482476,-1.7899718391735036],"type":"Point"}},{"type":"Feature","properties":{"description":"Pelabuhan Dofa"},"geometry":{"coordinates":[125.37566274543298,-1.8035439246943668],"type":"Point"}},{"type":"Feature","properties":{"description":"Pelabuhan Sanana"},"geometry":{"coordinates":[125.98181683416226,-2.056892777642858],"type":"Point"}},{"type":"Feature","properties":{"description":"Pelabuhan Namlea"},"geometry":{"coordinates":[127.08354631718248,-3.269399389046356],"type":"Point"}}]}